<?xml version="1.0" encoding="utf-8"?>
<gpx xmlns="http://www.topografix.com/GPX/1/1" version="1.1" creator="StravaGPX">
<metadata><name>4</name></metadata>
<trk><name>Wilh. Faerdens vei -&gt; Forskningsparken</name><trkseg>
<trkpt lat="59.935137" lon="10.727315"/>
<trkpt lat="59.935193" lon="10.726922"/>
<trkpt lat="59.935285" lon="10.726559"/>
<trkpt lat="59.935386" lon="10.726197"/>
<trkpt lat="59.935529" lon="10.725879"/>
<trkpt lat="59.935666" lon="10.725552"/>
<trkpt lat="59.935792" lon="10.725295"/>
<trkpt lat="59.935935" lon="10.725054"/>
<trkpt lat="59.936051" lon="10.724834"/>
<trkpt lat="59.936112" lon="10.724725"/>
<trkpt lat="59.936244" lon="10.724513"/>
<trkpt lat="59.936398" lon="10.724253"/>
<trkpt lat="59.936425" lon="10.724201"/>
<trkpt lat="59.936508" lon="10.72404"/>
<trkpt lat="59.936598" lon="10.723835"/>
<trkpt lat="59.93673" lon="10.723511"/>
<trkpt lat="59.936749" lon="10.723452"/>
<trkpt lat="59.936812" lon="10.723269"/>
<trkpt lat="59.936889" lon="10.72309"/>
<trkpt lat="59.937015" lon="10.722827"/>
<trkpt lat="59.937165" lon="10.722545"/>
<trkpt lat="59.937308" lon="10.722256"/>
<trkpt lat="59.937459" lon="10.721958"/>
<trkpt lat="59.937597" lon="10.721645"/>
<trkpt lat="59.937749" lon="10.72141"/>
<trkpt lat="59.937887" lon="10.721168"/>
<trkpt lat="59.93806" lon="10.720932"/>
<trkpt lat="59.938213" lon="10.72072"/>
<trkpt lat="59.938355" lon="10.720464"/>
<trkpt lat="59.938512" lon="10.720207"/>
<trkpt lat="59.938667" lon="10.719962"/>
<trkpt lat="59.93883" lon="10.71968"/>
<trkpt lat="59.938942" lon="10.7194"/>
<trkpt lat="59.939112" lon="10.719155"/>
<trkpt lat="59.939311" lon="10.719069"/>
<trkpt lat="59.939488" lon="10.719132"/>
<trkpt lat="59.939648" lon="10.719338"/>
<trkpt lat="59.939822" lon="10.719551"/>
<trkpt lat="59.93999" lon="10.719807"/>
<trkpt lat="59.940137" lon="10.720034"/>
<trkpt lat="59.94028" lon="10.720266"/>
<trkpt lat="59.940442" lon="10.720495"/>
<trkpt lat="59.940602" lon="10.72074"/>
<trkpt lat="59.940753" lon="10.72098"/>
<trkpt lat="59.940899" lon="10.721206"/>
<trkpt lat="59.941079" lon="10.721427"/>
<trkpt lat="59.941258" lon="10.721587"/>
<trkpt lat="59.941468" lon="10.721538"/>
<trkpt lat="59.941611" lon="10.721306"/>
<trkpt lat="59.94172" lon="10.721001"/>
<trkpt lat="59.941879" lon="10.720739"/>
<trkpt lat="59.942057" lon="10.720675"/>
<trkpt lat="59.942229" lon="10.720863"/>
<trkpt lat="59.942391" lon="10.721121"/>
<trkpt lat="59.942554" lon="10.721376"/>
<trkpt lat="59.942706" lon="10.721616"/>
<trkpt lat="59.942879" lon="10.721865"/>
<trkpt lat="59.943031" lon="10.722067"/>
<trkpt lat="59.94324" lon="10.722157"/>
<trkpt lat="59.943404" lon="10.721909"/>
<trkpt lat="59.943428" lon="10.721845"/>
<trkpt lat="59.943478" lon="10.721722"/>
<trkpt lat="59.94361" lon="10.72139"/>
<trkpt lat="59.943714" lon="10.721152"/>
<trkpt lat="59.94383" lon="10.720928"/>
<trkpt lat="59.943883" lon="10.720822"/>
<trkpt lat="59.944023" lon="10.720566"/>
<trkpt lat="59.94417" lon="10.720295"/>
<trkpt lat="59.944291" lon="10.719984"/>
<trkpt lat="59.94438" lon="10.719628"/>
<trkpt lat="59.944414" lon="10.7192"/>
<trkpt lat="59.944429" lon="10.718797"/>
<trkpt lat="59.944421" lon="10.718411"/>
<trkpt lat="59.944452" lon="10.718007"/>
<trkpt lat="59.944531" lon="10.717683"/>
<trkpt lat="59.94472" lon="10.717537"/>
<trkpt lat="59.944905" lon="10.717446"/>
<trkpt lat="59.944922" lon="10.717092"/>
<trkpt lat="59.944738" lon="10.716899"/>
<trkpt lat="59.944541" lon="10.716785"/>
<trkpt lat="59.944348" lon="10.716678"/>
<trkpt lat="59.944157" lon="10.716585"/>
<trkpt lat="59.943963" lon="10.716481"/>
<trkpt lat="59.943777" lon="10.716373"/>
<trkpt lat="59.943581" lon="10.71627"/>
<trkpt lat="59.9434" lon="10.716162"/>
<trkpt lat="59.943199" lon="10.71606"/>
<trkpt lat="59.943047" lon="10.715821"/>
<trkpt lat="59.943043" lon="10.715432"/>
<trkpt lat="59.943065" lon="10.715025"/>
<trkpt lat="59.943089" lon="10.714642"/>
<trkpt lat="59.943116" lon="10.714266"/>
<trkpt lat="59.943194" lon="10.71393"/>
</trkseg></trk></gpx>
