<?xml version="1.0" encoding="utf-8"?>
<gpx xmlns="http://www.topografix.com/GPX/1/1" version="1.1" creator="StravaGPX">
<metadata><name>5</name></metadata>
<trk><name>Forskningsparken -&gt; Vinderen</name><trkseg>
<trkpt lat="59.943194" lon="10.71393"/>
<trkpt lat="59.943375" lon="10.713829"/>
<trkpt lat="59.943559" lon="10.713845"/>
<trkpt lat="59.943739" lon="10.713874"/>
<trkpt lat="59.943923" lon="10.713871"/>
<trkpt lat="59.944122" lon="10.713878"/>
<trkpt lat="59.944321" lon="10.713922"/>
<trkpt lat="59.944502" lon="10.713924"/>
<trkpt lat="59.944708" lon="10.713943"/>
<trkpt lat="59.944914" lon="10.713968"/>
<trkpt lat="59.945123" lon="10.714028"/>
<trkpt lat="59.945338" lon="10.714061"/>
<trkpt lat="59.945476" lon="10.713778"/>
<trkpt lat="59.945537" lon="10.713432"/>
<trkpt lat="59.945583" lon="10.713077"/>
<trkpt lat="59.945656" lon="10.712723"/>
<trkpt lat="59.9457" lon="10.712593"/>
<trkpt lat="59.94582" lon="10.712262"/>
<trkpt lat="59.945908" lon="10.711928"/>
<trkpt lat="59.945953" lon="10.711559"/>
<trkpt lat="59.945871" lon="10.711227"/>
<trkpt lat="59.945743" lon="10.710956"/>
<trkpt lat="59.945731" lon="10.710558"/>
<trkpt lat="59.945772" lon="10.710187"/>
<trkpt lat="59.945871" lon="10.709853"/>
<trkpt lat="59.946016" lon="10.709568"/>
<trkpt lat="59.946126" lon="10.70927"/>
<trkpt lat="59.946202" lon="10.708926"/>
<trkpt lat="59.946187" lon="10.708877"/>
<trkpt lat="59.946015" lon="10.708763"/>
<trkpt lat="59.945825" lon="10.708597"/>
<trkpt lat="59.945642" lon="10.708383"/>
<trkpt lat="59.945495" lon="10.708123"/>
<trkpt lat="59.945347" lon="10.707862"/>
<trkpt lat="59.945171" lon="10.707774"/>
<trkpt lat="59.944981" lon="10.707766"/>
<trkpt lat="59.94483" lon="10.707526"/>
<trkpt lat="59.944689" lon="10.707219"/>
<trkpt lat="59.944646" lon="10.706824"/>
<trkpt lat="59.944726" lon="10.70646"/>
<trkpt lat="59.944812" lon="10.706103"/>
<trkpt lat="59.944839" lon="10.705748"/>
<trkpt lat="59.944718" lon="10.70548"/>
<trkpt lat="59.944534" lon="10.705314"/>
<trkpt lat="59.944355" lon="10.705138"/>
<trkpt lat="59.944171" lon="10.704939"/>
<trkpt lat="59.944003" lon="10.704738"/>
<trkpt lat="59.943827" lon="10.704586"/>
<trkpt lat="59.943637" lon="10.704521"/>
<trkpt lat="59.943457" lon="10.70435"/>
<trkpt lat="59.943269" lon="10.704146"/>
<trkpt lat="59.943083" lon="10.703963"/>
<trkpt lat="59.942899" lon="10.703805"/>
<trkpt lat="59.94273" lon="10.703611"/>
<trkpt lat="59.942718" lon="10.703545"/>
<trkpt lat="59.942732" lon="10.703181"/>
<trkpt lat="59.942762" lon="10.702818"/>
<trkpt lat="59.942776" lon="10.702439"/>
<trkpt lat="59.942796" lon="10.702062"/>
</trkseg></trk></gpx>
