<?xml version="1.0" encoding="utf-8"?>
<gpx xmlns="http://www.topografix.com/GPX/1/1" version="1.1" creator="StravaGPX">
<metadata><name>9</name></metadata>
<trk><name>Gressbanen -&gt; Holmendammen</name><trkseg>
<trkpt lat="59.95006" lon="10.675741"/>
<trkpt lat="59.949852" lon="10.675904"/>
<trkpt lat="59.949675" lon="10.676"/>
<trkpt lat="59.94951" lon="10.676061"/>
<trkpt lat="59.949305" lon="10.676128"/>
<trkpt lat="59.9491" lon="10.67618"/>
<trkpt lat="59.948891" lon="10.676244"/>
<trkpt lat="59.948682" lon="10.67631"/>
<trkpt lat="59.948476" lon="10.676351"/>
<trkpt lat="59.948282" lon="10.676385"/>
<trkpt lat="59.948116" lon="10.676403"/>
<trkpt lat="59.94791" lon="10.676413"/>
<trkpt lat="59.947745" lon="10.676428"/>
<trkpt lat="59.947546" lon="10.676473"/>
<trkpt lat="59.94735" lon="10.67652"/>
<trkpt lat="59.947156" lon="10.676605"/>
<trkpt lat="59.947119" lon="10.676623"/>
<trkpt lat="59.946937" lon="10.676778"/>
<trkpt lat="59.946867" lon="10.676852"/>
<trkpt lat="59.946692" lon="10.67707"/>
<trkpt lat="59.94652" lon="10.677297"/>
<trkpt lat="59.946457" lon="10.677395"/>
<trkpt lat="59.9463" lon="10.677628"/>
<trkpt lat="59.946142" lon="10.677856"/>
<trkpt lat="59.946019" lon="10.678042"/>
<trkpt lat="59.945856" lon="10.678268"/>
<trkpt lat="59.945795" lon="10.678368"/>
<trkpt lat="59.945634" lon="10.678594"/>
<trkpt lat="59.945571" lon="10.678687"/>
<trkpt lat="59.945406" lon="10.678931"/>
<trkpt lat="59.945338" lon="10.679029"/>
<trkpt lat="59.945267" lon="10.679121"/>
<trkpt lat="59.9451" lon="10.679366"/>
<trkpt lat="59.944921" lon="10.679606"/>
</trkseg></trk></gpx>
