<?xml version="1.0" encoding="utf-8"?>
<gpx xmlns="http://www.topografix.com/GPX/1/1" version="1.1" creator="StravaGPX">
<metadata><name>7</name></metadata>
<trk><name>Slemdal -&gt; Besserud</name><trkseg>
<trkpt lat="59.951615" lon="10.691802"/>
<trkpt lat="59.951823" lon="10.691746"/>
<trkpt lat="59.952001" lon="10.691818"/>
<trkpt lat="59.952205" lon="10.691914"/>
<trkpt lat="59.952383" lon="10.691987"/>
<trkpt lat="59.952578" lon="10.692074"/>
<trkpt lat="59.952774" lon="10.692159"/>
<trkpt lat="59.952956" lon="10.692244"/>
<trkpt lat="59.95313" lon="10.692343"/>
<trkpt lat="59.953329" lon="10.692278"/>
<trkpt lat="59.953492" lon="10.692049"/>
<trkpt lat="59.95364" lon="10.691784"/>
<trkpt lat="59.953789" lon="10.691503"/>
<trkpt lat="59.953938" lon="10.691241"/>
<trkpt lat="59.954119" lon="10.691039"/>
<trkpt lat="59.954299" lon="10.690904"/>
<trkpt lat="59.95448" lon="10.690855"/>
<trkpt lat="59.954687" lon="10.69083"/>
<trkpt lat="59.954869" lon="10.690811"/>
<trkpt lat="59.955052" lon="10.690797"/>
<trkpt lat="59.95525" lon="10.690743"/>
<trkpt lat="59.955421" lon="10.690626"/>
<trkpt lat="59.955588" lon="10.69042"/>
<trkpt lat="59.955767" lon="10.690178"/>
<trkpt lat="59.955923" lon="10.689985"/>
<trkpt lat="59.956114" lon="10.689865"/>
<trkpt lat="59.95632" lon="10.689804"/>
<trkpt lat="59.95652" lon="10.689764"/>
<trkpt lat="59.956709" lon="10.689749"/>
<trkpt lat="59.9569" lon="10.689742"/>
<trkpt lat="59.957107" lon="10.689715"/>
<trkpt lat="59.957308" lon="10.689703"/>
<trkpt lat="59.957515" lon="10.689666"/>
<trkpt lat="59.957728" lon="10.689636"/>
<trkpt lat="59.957933" lon="10.689605"/>
<trkpt lat="59.958129" lon="10.689591"/>
<trkpt lat="59.958197" lon="10.689596"/>
<trkpt lat="59.958386" lon="10.689587"/>
<trkpt lat="59.95859" lon="10.689576"/>
<trkpt lat="59.958791" lon="10.689551"/>
<trkpt lat="59.958983" lon="10.689463"/>
<trkpt lat="59.959135" lon="10.689195"/>
<trkpt lat="59.959252" lon="10.688893"/>
<trkpt lat="59.959307" lon="10.688493"/>
<trkpt lat="59.959321" lon="10.68809"/>
<trkpt lat="59.95934" lon="10.687717"/>
<trkpt lat="59.959372" lon="10.687339"/>
<trkpt lat="59.95937" lon="10.686969"/>
<trkpt lat="59.95938" lon="10.686603"/>
<trkpt lat="59.959385" lon="10.686202"/>
<trkpt lat="59.959395" lon="10.685783"/>
<trkpt lat="59.959405" lon="10.685405"/>
<trkpt lat="59.959423" lon="10.68502"/>
<trkpt lat="59.959428" lon="10.684604"/>
<trkpt lat="59.959427" lon="10.684239"/>
<trkpt lat="59.959439" lon="10.683853"/>
<trkpt lat="59.959457" lon="10.683465"/>
<trkpt lat="59.959466" lon="10.683097"/>
<trkpt lat="59.959467" lon="10.682731"/>
<trkpt lat="59.959467" lon="10.682321"/>
<trkpt lat="59.959456" lon="10.68196"/>
<trkpt lat="59.959439" lon="10.681603"/>
<trkpt lat="59.959409" lon="10.681218"/>
<trkpt lat="59.959372" lon="10.680818"/>
<trkpt lat="59.959338" lon="10.680465"/>
<trkpt lat="59.95932" lon="10.680093"/>
<trkpt lat="59.95929" lon="10.679681"/>
<trkpt lat="59.959245" lon="10.679319"/>
<trkpt lat="59.959189" lon="10.678974"/>
<trkpt lat="59.959136" lon="10.678621"/>
<trkpt lat="59.959088" lon="10.678276"/>
<trkpt lat="59.959008" lon="10.677904"/>
<trkpt lat="59.958944" lon="10.677556"/>
<trkpt lat="59.958863" lon="10.67718"/>
<trkpt lat="59.958765" lon="10.676869"/>
<trkpt lat="59.958664" lon="10.676571"/>
<trkpt lat="59.958553" lon="10.676255"/>
<trkpt lat="59.95844" lon="10.675962"/>
<trkpt lat="59.958343" lon="10.675635"/>
<trkpt lat="59.958218" lon="10.675316"/>
<trkpt lat="59.958098" lon="10.675012"/>
</trkseg></trk></gpx>
