<?xml version="1.0" encoding="utf-8"?>
<gpx xmlns="http://www.topografix.com/GPX/1/1" version="1.1" creator="gpx.studio">
<metadata><name>15</name></metadata>
<trk><name>Bislettgata -&gt; Bislett Stadion</name><trkseg>
<trkpt lat="59.924754745" lon="10.732068119"/>
<trkpt lat="59.924551346" lon="10.732398129"/>
<trkpt lat="59.924347945" lon="10.732728139"/>
<trkpt lat="59.924264304" lon="10.732860901"/>
<trkpt lat="59.924180662" lon="10.732993664"/>
<trkpt lat="59.924125534" lon="10.733092287"/>
<trkpt lat="59.924070406" lon="10.733190911"/>
<trkpt lat="59.924038090" lon="10.733289535"/>
<trkpt lat="59.924005774" lon="10.733388158"/>
<trkpt lat="59.923971556" lon="10.733543680"/>
<trkpt lat="59.923937339" lon="10.733699202"/>
<trkpt lat="59.923920230" lon="10.733816792"/>
<trkpt lat="59.923903121" lon="10.733934381"/>
<trkpt lat="59.923886013" lon="10.733995073"/>
<trkpt lat="59.923868904" lon="10.734055764"/>
<trkpt lat="59.923847993" lon="10.734177147"/>
<trkpt lat="59.923827082" lon="10.734298530"/>
<trkpt lat="59.923847993" lon="10.734355428"/>
<trkpt lat="59.923868904" lon="10.734412327"/>
<trkpt lat="59.924072307" lon="10.734215079"/>
<trkpt lat="59.924275709" lon="10.734017832"/>
<trkpt lat="59.924319431" lon="10.733987486"/>
<trkpt lat="59.924363153" lon="10.733957141"/>
<trkpt lat="59.924351747" lon="10.733854724"/>
<trkpt lat="59.924340341" lon="10.733752307"/>
<trkpt lat="59.924344143" lon="10.733646097"/>
<trkpt lat="59.924347945" lon="10.733539887"/>
<trkpt lat="59.924366955" lon="10.733441263"/>
<trkpt lat="59.924385964" lon="10.733342640"/>
<trkpt lat="59.924404973" lon="10.733289535"/>
<trkpt lat="59.924423983" lon="10.733236430"/>
<trkpt lat="59.924454398" lon="10.733179531"/>
<trkpt lat="59.924484813" lon="10.733122633"/>
<trkpt lat="59.924667302" lon="10.732955732"/>
<trkpt lat="59.924849791" lon="10.732788830"/>
<trkpt lat="59.925053188" lon="10.732614342"/>
<trkpt lat="59.925256584" lon="10.732439854"/>
<trkpt lat="59.925290800" lon="10.732428474"/>
<trkpt lat="59.925325016" lon="10.732417095"/>
<trkpt lat="59.925359232" lon="10.732420888"/>
<trkpt lat="59.925393448" lon="10.732424681"/>
<trkpt lat="59.925425763" lon="10.732439854"/>
<trkpt lat="59.925458078" lon="10.732455027"/>
<trkpt lat="59.925484690" lon="10.732485373"/>
<trkpt lat="59.925511303" lon="10.732515718"/>
<trkpt lat="59.925536014" lon="10.732546064"/>
<trkpt lat="59.925560725" lon="10.732576410"/>
<trkpt lat="59.925581635" lon="10.732614342"/>
<trkpt lat="59.925602545" lon="10.732652274"/>
<trkpt lat="59.925623454" lon="10.732716759"/>
<trkpt lat="59.925644364" lon="10.732781244"/>
<trkpt lat="59.925659571" lon="10.732849521"/>
<trkpt lat="59.925674778" lon="10.732917799"/>
<trkpt lat="59.925680480" lon="10.732993664"/>
<trkpt lat="59.925686183" lon="10.733069528"/>
<trkpt lat="59.925680480" lon="10.733137806"/>
<trkpt lat="59.925674778" lon="10.733206084"/>
<trkpt lat="59.925663372" lon="10.733274362"/>
<trkpt lat="59.925651967" lon="10.733342640"/>
<trkpt lat="59.925638661" lon="10.733395745"/>
<trkpt lat="59.925625355" lon="10.733448850"/>
<trkpt lat="59.925608247" lon="10.733479195"/>
<trkpt lat="59.925591139" lon="10.733509541"/>
<trkpt lat="59.925562626" lon="10.733543680"/>
<trkpt lat="59.925534113" lon="10.733577819"/>
<trkpt lat="59.925328818" lon="10.733763687"/>
<trkpt lat="59.925123521" lon="10.733949554"/>
</trkseg></trk></gpx>
