<?xml version="1.0" encoding="utf-8"?>
<gpx xmlns="http://www.topografix.com/GPX/1/1" version="1.1" creator="StravaGPX">
<metadata><name>10</name></metadata>
<trk><name>Holmendammen -&gt; Frognerparken</name><trkseg>
<trkpt lat="59.944748" lon="10.679848"/>
<trkpt lat="59.94464" lon="10.680002"/>
<trkpt lat="59.94449" lon="10.680222"/>
<trkpt lat="59.944337" lon="10.680416"/>
<trkpt lat="59.944157" lon="10.680657"/>
<trkpt lat="59.943978" lon="10.680869"/>
<trkpt lat="59.943784" lon="10.681032"/>
<trkpt lat="59.943662" lon="10.68111"/>
<trkpt lat="59.943451" lon="10.681217"/>
<trkpt lat="59.943247" lon="10.681303"/>
<trkpt lat="59.943044" lon="10.681391"/>
<trkpt lat="59.942837" lon="10.681479"/>
<trkpt lat="59.942626" lon="10.681567"/>
<trkpt lat="59.942415" lon="10.681633"/>
<trkpt lat="59.942203" lon="10.681677"/>
<trkpt lat="59.941993" lon="10.681706"/>
<trkpt lat="59.941781" lon="10.681711"/>
<trkpt lat="59.941562" lon="10.681731"/>
<trkpt lat="59.941345" lon="10.681723"/>
<trkpt lat="59.941133" lon="10.681751"/>
<trkpt lat="59.940916" lon="10.681795"/>
<trkpt lat="59.940707" lon="10.681842"/>
<trkpt lat="59.940501" lon="10.681875"/>
<trkpt lat="59.94029" lon="10.681891"/>
<trkpt lat="59.940075" lon="10.681869"/>
<trkpt lat="59.93986" lon="10.681827"/>
<trkpt lat="59.939815" lon="10.681819"/>
<trkpt lat="59.939637" lon="10.681778"/>
<trkpt lat="59.939504" lon="10.681726"/>
<trkpt lat="59.939324" lon="10.681645"/>
<trkpt lat="59.939189" lon="10.68159"/>
<trkpt lat="59.939016" lon="10.681512"/>
<trkpt lat="59.938846" lon="10.681389"/>
<trkpt lat="59.938805" lon="10.681349"/>
<trkpt lat="59.93865" lon="10.68115"/>
<trkpt lat="59.93848" lon="10.680887"/>
<trkpt lat="59.938452" lon="10.680835"/>
<trkpt lat="59.938406" lon="10.680705"/>
<trkpt lat="59.938382" lon="10.680536"/>
<trkpt lat="59.938372" lon="10.680358"/>
<trkpt lat="59.938351" lon="10.680108"/>
<trkpt lat="59.938306" lon="10.680003"/>
<trkpt lat="59.938232" lon="10.679969"/>
<trkpt lat="59.938026" lon="10.680023"/>
<trkpt lat="59.937809" lon="10.680062"/>
<trkpt lat="59.937595" lon="10.680106"/>
<trkpt lat="59.937379" lon="10.680109"/>
<trkpt lat="59.937291" lon="10.680074"/>
<trkpt lat="59.937208" lon="10.680011"/>
<trkpt lat="59.937099" lon="10.679865"/>
<trkpt lat="59.93701" lon="10.67969"/>
<trkpt lat="59.936886" lon="10.679348"/>
<trkpt lat="59.936719" lon="10.679096"/>
<trkpt lat="59.936574" lon="10.678918"/>
<trkpt lat="59.936413" lon="10.678659"/>
<trkpt lat="59.936269" lon="10.678379"/>
<trkpt lat="59.936135" lon="10.678077"/>
<trkpt lat="59.936002" lon="10.677786"/>
<trkpt lat="59.935871" lon="10.677487"/>
<trkpt lat="59.93573" lon="10.677201"/>
<trkpt lat="59.935582" lon="10.676891"/>
<trkpt lat="59.935444" lon="10.676578"/>
<trkpt lat="59.935323" lon="10.676253"/>
<trkpt lat="59.935195" lon="10.67595"/>
<trkpt lat="59.935061" lon="10.675643"/>
<trkpt lat="59.934932" lon="10.675321"/>
<trkpt lat="59.934889" lon="10.675191"/>
<trkpt lat="59.934801" lon="10.674815"/>
<trkpt lat="59.934755" lon="10.674663"/>
<trkpt lat="59.934699" lon="10.67457"/>
<trkpt lat="59.934625" lon="10.674498"/>
<trkpt lat="59.934456" lon="10.674527"/>
<trkpt lat="59.934412" lon="10.674741"/>
<trkpt lat="59.934386" lon="10.67502"/>
<trkpt lat="59.9344" lon="10.675267"/>
<trkpt lat="59.934446" lon="10.675398"/>
<trkpt lat="59.934513" lon="10.675553"/>
<trkpt lat="59.934564" lon="10.675645"/>
<trkpt lat="59.9347" lon="10.675905"/>
<trkpt lat="59.93484" lon="10.676187"/>
<trkpt lat="59.934973" lon="10.676476"/>
<trkpt lat="59.935088" lon="10.676777"/>
<trkpt lat="59.935202" lon="10.677075"/>
<trkpt lat="59.935329" lon="10.677412"/>
<trkpt lat="59.93544" lon="10.677779"/>
<trkpt lat="59.935551" lon="10.678063"/>
<trkpt lat="59.9356" lon="10.678184"/>
<trkpt lat="59.935717" lon="10.678483"/>
<trkpt lat="59.935825" lon="10.678776"/>
<trkpt lat="59.935921" lon="10.679091"/>
<trkpt lat="59.936002" lon="10.679427"/>
<trkpt lat="59.936074" lon="10.679808"/>
<trkpt lat="59.936164" lon="10.680135"/>
<trkpt lat="59.936194" lon="10.680505"/>
<trkpt lat="59.93606" lon="10.680767"/>
<trkpt lat="59.935899" lon="10.681008"/>
<trkpt lat="59.935756" lon="10.681245"/>
<trkpt lat="59.935617" lon="10.681476"/>
<trkpt lat="59.935483" lon="10.681738"/>
<trkpt lat="59.935361" lon="10.682021"/>
<trkpt lat="59.935236" lon="10.682327"/>
<trkpt lat="59.935114" lon="10.682679"/>
<trkpt lat="59.935019" lon="10.682983"/>
<trkpt lat="59.934909" lon="10.683358"/>
<trkpt lat="59.934795" lon="10.683732"/>
<trkpt lat="59.934751" lon="10.683875"/>
<trkpt lat="59.934641" lon="10.684246"/>
<trkpt lat="59.934563" lon="10.684456"/>
<trkpt lat="59.934433" lon="10.684793"/>
<trkpt lat="59.934379" lon="10.684925"/>
<trkpt lat="59.934235" lon="10.68526"/>
<trkpt lat="59.934116" lon="10.685515"/>
<trkpt lat="59.93398" lon="10.68582"/>
<trkpt lat="59.933878" lon="10.686051"/>
<trkpt lat="59.933779" lon="10.686368"/>
<trkpt lat="59.933745" lon="10.686511"/>
<trkpt lat="59.933704" lon="10.686723"/>
<trkpt lat="59.933668" lon="10.68694"/>
<trkpt lat="59.933606" lon="10.687291"/>
<trkpt lat="59.933537" lon="10.687642"/>
<trkpt lat="59.933461" lon="10.688002"/>
<trkpt lat="59.933369" lon="10.688357"/>
<trkpt lat="59.933278" lon="10.688681"/>
<trkpt lat="59.93319" lon="10.689004"/>
<trkpt lat="59.933047" lon="10.689301"/>
<trkpt lat="59.932916" lon="10.689594"/>
<trkpt lat="59.932783" lon="10.689916"/>
<trkpt lat="59.932659" lon="10.690183"/>
<trkpt lat="59.932534" lon="10.690466"/>
<trkpt lat="59.932381" lon="10.690746"/>
<trkpt lat="59.932225" lon="10.691021"/>
<trkpt lat="59.932073" lon="10.691283"/>
<trkpt lat="59.931924" lon="10.691518"/>
<trkpt lat="59.931772" lon="10.691758"/>
<trkpt lat="59.931625" lon="10.692012"/>
<trkpt lat="59.931473" lon="10.692233"/>
<trkpt lat="59.93131" lon="10.692448"/>
<trkpt lat="59.931156" lon="10.692678"/>
<trkpt lat="59.931004" lon="10.692917"/>
<trkpt lat="59.93085" lon="10.693158"/>
<trkpt lat="59.930688" lon="10.69339"/>
<trkpt lat="59.930522" lon="10.693621"/>
<trkpt lat="59.930358" lon="10.693842"/>
<trkpt lat="59.930198" lon="10.694059"/>
<trkpt lat="59.930031" lon="10.694312"/>
<trkpt lat="59.92986" lon="10.694564"/>
<trkpt lat="59.929698" lon="10.694825"/>
<trkpt lat="59.929557" lon="10.695056"/>
<trkpt lat="59.929384" lon="10.69523"/>
</trkseg></trk></gpx>
