<?xml version="1.0" encoding="utf-8"?>
<gpx xmlns="http://www.topografix.com/GPX/1/1" version="1.1" creator="StravaGPX">
<metadata><name>13</name></metadata>
<trk><name>Arno Bergs plass -&gt; Camilla Colletts vei</name><trkseg>
<trkpt lat="59.921436" lon="10.712555"/>
<trkpt lat="59.921279" lon="10.712812"/>
<trkpt lat="59.921102" lon="10.71305"/>
<trkpt lat="59.921065" lon="10.713089"/>
<trkpt lat="59.920999" lon="10.71317"/>
<trkpt lat="59.920837" lon="10.713382"/>
<trkpt lat="59.920671" lon="10.713558"/>
<trkpt lat="59.920494" lon="10.713721"/>
<trkpt lat="59.920309" lon="10.713913"/>
<trkpt lat="59.920128" lon="10.714076"/>
<trkpt lat="59.919944" lon="10.714216"/>
<trkpt lat="59.919771" lon="10.714334"/>
<trkpt lat="59.91957" lon="10.714422"/>
<trkpt lat="59.919381" lon="10.71451"/>
<trkpt lat="59.919198" lon="10.714564"/>
<trkpt lat="59.918984" lon="10.714636"/>
<trkpt lat="59.918799" lon="10.714768"/>
<trkpt lat="59.918628" lon="10.714931"/>
<trkpt lat="59.918459" lon="10.715055"/>
<trkpt lat="59.91826" lon="10.715185"/>
<trkpt lat="59.918055" lon="10.715295"/>
<trkpt lat="59.917849" lon="10.715422"/>
<trkpt lat="59.917719" lon="10.715775"/>
<trkpt lat="59.917646" lon="10.716143"/>
<trkpt lat="59.917585" lon="10.7165"/>
<trkpt lat="59.917499" lon="10.716823"/>
<trkpt lat="59.917414" lon="10.717155"/>
<trkpt lat="59.917475" lon="10.71754"/>
<trkpt lat="59.917644" lon="10.717782"/>
<trkpt lat="59.917805" lon="10.718026"/>
<trkpt lat="59.917947" lon="10.71825"/>
<trkpt lat="59.918124" lon="10.718488"/>
<trkpt lat="59.918276" lon="10.718778"/>
<trkpt lat="59.918423" lon="10.719053"/>
<trkpt lat="59.918572" lon="10.719307"/>
<trkpt lat="59.918767" lon="10.719495"/>
<trkpt lat="59.918958" lon="10.719681"/>
<trkpt lat="59.919135" lon="10.719897"/>
<trkpt lat="59.919313" lon="10.720123"/>
<trkpt lat="59.919504" lon="10.720339"/>
<trkpt lat="59.919671" lon="10.720591"/>
<trkpt lat="59.919835" lon="10.720865"/>
<trkpt lat="59.919969" lon="10.721107"/>
<trkpt lat="59.920121" lon="10.721339"/>
<trkpt lat="59.920278" lon="10.72161"/>
<trkpt lat="59.920428" lon="10.721901"/>
<trkpt lat="59.920622" lon="10.722101"/>
<trkpt lat="59.920776" lon="10.722287"/>
<trkpt lat="59.92093" lon="10.72248"/>
<trkpt lat="59.921085" lon="10.722704"/>
<trkpt lat="59.921271" lon="10.722795"/>
<trkpt lat="59.921455" lon="10.722999"/>
</trkseg></trk></gpx>
