<?xml version="1.0" encoding="utf-8"?>
<gpx xmlns="http://www.topografix.com/GPX/1/1" version="1.1" creator="StravaGPX">
<metadata><name>12</name></metadata>
<trk><name>Nordraaks gate -&gt; Arno Bergs plass</name><trkseg>
<trkpt lat="59.922621" lon="10.707803"/>
<trkpt lat="59.922784" lon="10.708026"/>
<trkpt lat="59.922948" lon="10.708268"/>
<trkpt lat="59.923107" lon="10.708529"/>
<trkpt lat="59.923203" lon="10.708748"/>
<trkpt lat="59.923113" lon="10.709061"/>
<trkpt lat="59.92299" lon="10.70937"/>
<trkpt lat="59.922862" lon="10.70968"/>
<trkpt lat="59.922728" lon="10.70997"/>
<trkpt lat="59.9226" lon="10.710274"/>
<trkpt lat="59.92247" lon="10.710577"/>
<trkpt lat="59.922341" lon="10.710853"/>
<trkpt lat="59.922309" lon="10.710906"/>
<trkpt lat="59.922152" lon="10.711145"/>
<trkpt lat="59.922002" lon="10.711409"/>
<trkpt lat="59.921872" lon="10.7117"/>
<trkpt lat="59.921737" lon="10.711977"/>
<trkpt lat="59.921588" lon="10.712274"/>
</trkseg></trk></gpx>
