<?xml version="1.0" encoding="utf-8"?>
<gpx xmlns="http://www.topografix.com/GPX/1/1" version="1.1" creator="StravaGPX">
<metadata><name>2</name></metadata>
<trk><name>Louises gate -&gt; Wolffs gate</name><trkseg>
<trkpt lat="59.927187" lon="10.737833"/>
<trkpt lat="59.927183" lon="10.737826"/>
<trkpt lat="59.927178" lon="10.737809"/>
<trkpt lat="59.927166" lon="10.737774"/>
<trkpt lat="59.927148" lon="10.737709"/>
<trkpt lat="59.927124" lon="10.737618"/>
<trkpt lat="59.927095" lon="10.737512"/>
<trkpt lat="59.927059" lon="10.7374"/>
<trkpt lat="59.927022" lon="10.737288"/>
<trkpt lat="59.926985" lon="10.737176"/>
<trkpt lat="59.926951" lon="10.737066"/>
<trkpt lat="59.926914" lon="10.736961"/>
<trkpt lat="59.926877" lon="10.73686"/>
<trkpt lat="59.926844" lon="10.73676"/>
<trkpt lat="59.926805" lon="10.736663"/>
<trkpt lat="59.92677" lon="10.736565"/>
<trkpt lat="59.926741" lon="10.736463"/>
<trkpt lat="59.926709" lon="10.736362"/>
<trkpt lat="59.926662" lon="10.736213"/>
<trkpt lat="59.926646" lon="10.736166"/>
<trkpt lat="59.926616" lon="10.736068"/>
<trkpt lat="59.926585" lon="10.735968"/>
<trkpt lat="59.926557" lon="10.735867"/>
<trkpt lat="59.92653" lon="10.735768"/>
<trkpt lat="59.926501" lon="10.735672"/>
<trkpt lat="59.926471" lon="10.735574"/>
<trkpt lat="59.926442" lon="10.735478"/>
<trkpt lat="59.926411" lon="10.735381"/>
<trkpt lat="59.926374" lon="10.735291"/>
<trkpt lat="59.926341" lon="10.735195"/>
<trkpt lat="59.92631" lon="10.7351"/>
<trkpt lat="59.926278" lon="10.735009"/>
<trkpt lat="59.926246" lon="10.734917"/>
<trkpt lat="59.926215" lon="10.734823"/>
<trkpt lat="59.926185" lon="10.734728"/>
<trkpt lat="59.926151" lon="10.734636"/>
<trkpt lat="59.926117" lon="10.734545"/>
<trkpt lat="59.926095" lon="10.73445"/>
<trkpt lat="59.926072" lon="10.734359"/>
<trkpt lat="59.926052" lon="10.734265"/>
<trkpt lat="59.926033" lon="10.734162"/>
<trkpt lat="59.92602" lon="10.734056"/>
<trkpt lat="59.926005" lon="10.733946"/>
<trkpt lat="59.925987" lon="10.73383"/>
<trkpt lat="59.925972" lon="10.733717"/>
<trkpt lat="59.925955" lon="10.733606"/>
<trkpt lat="59.925941" lon="10.733488"/>
<trkpt lat="59.925929" lon="10.733375"/>
<trkpt lat="59.925915" lon="10.733264"/>
<trkpt lat="59.925906" lon="10.733147"/>
<trkpt lat="59.925899" lon="10.733032"/>
<trkpt lat="59.925887" lon="10.732926"/>
<trkpt lat="59.92587" lon="10.732825"/>
<trkpt lat="59.925852" lon="10.732727"/>
<trkpt lat="59.925839" lon="10.73263"/>
<trkpt lat="59.92582" lon="10.732535"/>
<trkpt lat="59.925805" lon="10.732436"/>
<trkpt lat="59.92579" lon="10.732344"/>
<trkpt lat="59.925772" lon="10.73225"/>
<trkpt lat="59.92576" lon="10.732155"/>
<trkpt lat="59.925751" lon="10.732059"/>
<trkpt lat="59.925738" lon="10.731958"/>
<trkpt lat="59.925714" lon="10.731865"/>
<trkpt lat="59.925698" lon="10.731771"/>
<trkpt lat="59.925679" lon="10.73168"/>
<trkpt lat="59.925664" lon="10.731591"/>
<trkpt lat="59.925649" lon="10.7315"/>
<trkpt lat="59.925637" lon="10.731412"/>
<trkpt lat="59.925624" lon="10.731323"/>
<trkpt lat="59.92561" lon="10.731231"/>
<trkpt lat="59.925599" lon="10.731136"/>
<trkpt lat="59.9256" lon="10.731035"/>
<trkpt lat="59.92561" lon="10.730935"/>
<trkpt lat="59.925622" lon="10.73084"/>
<trkpt lat="59.925642" lon="10.730753"/>
<trkpt lat="59.925665" lon="10.730675"/>
<trkpt lat="59.925692" lon="10.730607"/>
<trkpt lat="59.925728" lon="10.730547"/>
<trkpt lat="59.925766" lon="10.730494"/>
<trkpt lat="59.925803" lon="10.730446"/>
<trkpt lat="59.925842" lon="10.730399"/>
<trkpt lat="59.925877" lon="10.73035"/>
<trkpt lat="59.925917" lon="10.730304"/>
<trkpt lat="59.925955" lon="10.730262"/>
<trkpt lat="59.925994" lon="10.730224"/>
<trkpt lat="59.926032" lon="10.730187"/>
<trkpt lat="59.926073" lon="10.730151"/>
<trkpt lat="59.926119" lon="10.730106"/>
<trkpt lat="59.92616" lon="10.730065"/>
<trkpt lat="59.926201" lon="10.730025"/>
<trkpt lat="59.926246" lon="10.729981"/>
<trkpt lat="59.926292" lon="10.72995"/>
<trkpt lat="59.926339" lon="10.729906"/>
<trkpt lat="59.926378" lon="10.729866"/>
<trkpt lat="59.926414" lon="10.729815"/>
<trkpt lat="59.926445" lon="10.729765"/>
<trkpt lat="59.926475" lon="10.729708"/>
<trkpt lat="59.926513" lon="10.729659"/>
<trkpt lat="59.926551" lon="10.729621"/>
<trkpt lat="59.926586" lon="10.729575"/>
<trkpt lat="59.926618" lon="10.72953"/>
<trkpt lat="59.926644" lon="10.729479"/>
<trkpt lat="59.926673" lon="10.729435"/>
<trkpt lat="59.926709" lon="10.729395"/>
<trkpt lat="59.92674" lon="10.729338"/>
<trkpt lat="59.926775" lon="10.729301"/>
<trkpt lat="59.926807" lon="10.729258"/>
<trkpt lat="59.926829" lon="10.729207"/>
<trkpt lat="59.926865" lon="10.729179"/>
<trkpt lat="59.926903" lon="10.729142"/>
<trkpt lat="59.926939" lon="10.729111"/>
<trkpt lat="59.926978" lon="10.729076"/>
<trkpt lat="59.92701" lon="10.72905"/>
<trkpt lat="59.927041" lon="10.729029"/>
<trkpt lat="59.927072" lon="10.729017"/>
<trkpt lat="59.927098" lon="10.729"/>
<trkpt lat="59.927126" lon="10.728984"/>
<trkpt lat="59.927146" lon="10.728961"/>
<trkpt lat="59.927171" lon="10.728934"/>
<trkpt lat="59.927189" lon="10.728891"/>
<trkpt lat="59.927216" lon="10.728865"/>
<trkpt lat="59.92724" lon="10.728823"/>
<trkpt lat="59.927269" lon="10.728794"/>
<trkpt lat="59.927302" lon="10.728754"/>
<trkpt lat="59.927337" lon="10.728716"/>
<trkpt lat="59.927369" lon="10.728691"/>
<trkpt lat="59.927403" lon="10.728666"/>
<trkpt lat="59.927433" lon="10.728645"/>
<trkpt lat="59.927463" lon="10.728624"/>
<trkpt lat="59.927486" lon="10.728597"/>
<trkpt lat="59.927511" lon="10.728589"/>
<trkpt lat="59.927537" lon="10.728575"/>
<trkpt lat="59.92757" lon="10.728568"/>
<trkpt lat="59.927605" lon="10.728562"/>
<trkpt lat="59.927648" lon="10.728561"/>
<trkpt lat="59.927686" lon="10.728561"/>
<trkpt lat="59.927724" lon="10.728561"/>
<trkpt lat="59.927764" lon="10.728569"/>
<trkpt lat="59.927811" lon="10.728586"/>
<trkpt lat="59.927865" lon="10.728621"/>
<trkpt lat="59.927914" lon="10.728661"/>
<trkpt lat="59.927958" lon="10.728691"/>
<trkpt lat="59.928011" lon="10.728716"/>
<trkpt lat="59.928059" lon="10.728733"/>
<trkpt lat="59.928106" lon="10.72876"/>
<trkpt lat="59.928154" lon="10.728785"/>
<trkpt lat="59.928205" lon="10.728815"/>
<trkpt lat="59.928255" lon="10.728844"/>
<trkpt lat="59.928308" lon="10.72888"/>
<trkpt lat="59.928355" lon="10.728915"/>
<trkpt lat="59.928404" lon="10.728958"/>
<trkpt lat="59.92845" lon="10.729"/>
<trkpt lat="59.928501" lon="10.729048"/>
<trkpt lat="59.928548" lon="10.729088"/>
<trkpt lat="59.928595" lon="10.729131"/>
<trkpt lat="59.92864" lon="10.729172"/>
<trkpt lat="59.928685" lon="10.729208"/>
<trkpt lat="59.928731" lon="10.72924"/>
<trkpt lat="59.928779" lon="10.729268"/>
<trkpt lat="59.928828" lon="10.729294"/>
<trkpt lat="59.928877" lon="10.729313"/>
<trkpt lat="59.928927" lon="10.72934"/>
<trkpt lat="59.928977" lon="10.729366"/>
<trkpt lat="59.929027" lon="10.729388"/>
<trkpt lat="59.929077" lon="10.729408"/>
<trkpt lat="59.929125" lon="10.729428"/>
<trkpt lat="59.929171" lon="10.729442"/>
<trkpt lat="59.92922" lon="10.729455"/>
<trkpt lat="59.929267" lon="10.72947"/>
<trkpt lat="59.929313" lon="10.729483"/>
<trkpt lat="59.929361" lon="10.729504"/>
<trkpt lat="59.929406" lon="10.729522"/>
<trkpt lat="59.929451" lon="10.729539"/>
<trkpt lat="59.929494" lon="10.729553"/>
<trkpt lat="59.929538" lon="10.729563"/>
<trkpt lat="59.929583" lon="10.729573"/>
<trkpt lat="59.929629" lon="10.729589"/>
<trkpt lat="59.929674" lon="10.729603"/>
<trkpt lat="59.92972" lon="10.729618"/>
<trkpt lat="59.929766" lon="10.729633"/>
<trkpt lat="59.92981" lon="10.729653"/>
<trkpt lat="59.929856" lon="10.729673"/>
<trkpt lat="59.929901" lon="10.729694"/>
<trkpt lat="59.929946" lon="10.729717"/>
<trkpt lat="59.929989" lon="10.729739"/>
<trkpt lat="59.930034" lon="10.729754"/>
<trkpt lat="59.93008" lon="10.729773"/>
<trkpt lat="59.930125" lon="10.729797"/>
<trkpt lat="59.930169" lon="10.729818"/>
<trkpt lat="59.930211" lon="10.729835"/>
<trkpt lat="59.930254" lon="10.729849"/>
<trkpt lat="59.930299" lon="10.729867"/>
<trkpt lat="59.930343" lon="10.729884"/>
<trkpt lat="59.930388" lon="10.729901"/>
<trkpt lat="59.930435" lon="10.729918"/>
<trkpt lat="59.930481" lon="10.729937"/>
<trkpt lat="59.930528" lon="10.729954"/>
<trkpt lat="59.930572" lon="10.729972"/>
<trkpt lat="59.930618" lon="10.729987"/>
<trkpt lat="59.93066" lon="10.730002"/>
<trkpt lat="59.930705" lon="10.730017"/>
<trkpt lat="59.930753" lon="10.730029"/>
<trkpt lat="59.930798" lon="10.730044"/>
<trkpt lat="59.930839" lon="10.730071"/>
<trkpt lat="59.930881" lon="10.73009"/>
<trkpt lat="59.930924" lon="10.730103"/>
<trkpt lat="59.93097" lon="10.730118"/>
<trkpt lat="59.931013" lon="10.730132"/>
<trkpt lat="59.931057" lon="10.730148"/>
<trkpt lat="59.931101" lon="10.730174"/>
<trkpt lat="59.931143" lon="10.730198"/>
</trkseg></trk></gpx>
