<?xml version="1.0" encoding="utf-8"?>
<gpx xmlns="http://www.topografix.com/GPX/1/1" version="1.1" creator="StravaGPX">
<metadata><name>8</name></metadata>
<trk><name>Besserud -&gt; Gressbanen</name><trkseg>
<trkpt lat="59.957956" lon="10.674703"/>
<trkpt lat="59.957839" lon="10.674417"/>
<trkpt lat="59.957793" lon="10.674282"/>
<trkpt lat="59.957649" lon="10.673956"/>
<trkpt lat="59.957508" lon="10.67365"/>
<trkpt lat="59.957342" lon="10.673437"/>
<trkpt lat="59.95716" lon="10.673193"/>
<trkpt lat="59.957033" lon="10.672867"/>
<trkpt lat="59.956921" lon="10.672509"/>
<trkpt lat="59.956827" lon="10.672153"/>
<trkpt lat="59.956745" lon="10.671797"/>
<trkpt lat="59.956689" lon="10.671385"/>
<trkpt lat="59.95666" lon="10.670953"/>
<trkpt lat="59.956649" lon="10.670541"/>
<trkpt lat="59.956638" lon="10.670111"/>
<trkpt lat="59.956626" lon="10.669682"/>
<trkpt lat="59.956616" lon="10.669268"/>
<trkpt lat="59.956591" lon="10.668851"/>
<trkpt lat="59.956564" lon="10.668608"/>
<trkpt lat="59.956483" lon="10.668209"/>
<trkpt lat="59.956406" lon="10.667799"/>
<trkpt lat="59.956339" lon="10.667481"/>
<trkpt lat="59.956288" lon="10.667128"/>
<trkpt lat="59.956246" lon="10.666695"/>
<trkpt lat="59.956243" lon="10.666443"/>
<trkpt lat="59.956274" lon="10.666012"/>
<trkpt lat="59.956329" lon="10.665581"/>
<trkpt lat="59.956361" lon="10.665324"/>
<trkpt lat="59.956397" lon="10.665069"/>
<trkpt lat="59.95646" lon="10.664662"/>
<trkpt lat="59.95647" lon="10.664579"/>
<trkpt lat="59.956487" lon="10.664321"/>
<trkpt lat="59.956475" lon="10.664154"/>
<trkpt lat="59.956432" lon="10.664013"/>
<trkpt lat="59.956362" lon="10.663932"/>
<trkpt lat="59.956287" lon="10.663913"/>
<trkpt lat="59.956214" lon="10.663977"/>
<trkpt lat="59.956149" lon="10.664106"/>
<trkpt lat="59.95606" lon="10.664354"/>
<trkpt lat="59.955957" lon="10.664702"/>
<trkpt lat="59.955839" lon="10.665014"/>
<trkpt lat="59.955694" lon="10.665265"/>
<trkpt lat="59.955651" lon="10.665319"/>
<trkpt lat="59.955573" lon="10.665417"/>
<trkpt lat="59.95545" lon="10.665557"/>
<trkpt lat="59.95529" lon="10.665722"/>
<trkpt lat="59.955125" lon="10.665879"/>
<trkpt lat="59.954953" lon="10.666027"/>
<trkpt lat="59.954791" lon="10.666189"/>
<trkpt lat="59.954634" lon="10.666366"/>
<trkpt lat="59.954559" lon="10.666453"/>
<trkpt lat="59.954426" lon="10.666663"/>
<trkpt lat="59.954346" lon="10.666861"/>
<trkpt lat="59.954255" lon="10.667256"/>
<trkpt lat="59.954214" lon="10.667616"/>
<trkpt lat="59.954196" lon="10.667973"/>
<trkpt lat="59.954195" lon="10.668149"/>
<trkpt lat="59.954203" lon="10.668594"/>
<trkpt lat="59.954208" lon="10.668954"/>
<trkpt lat="59.954211" lon="10.669386"/>
<trkpt lat="59.95422" lon="10.669827"/>
<trkpt lat="59.954222" lon="10.670186"/>
<trkpt lat="59.954218" lon="10.670545"/>
<trkpt lat="59.954211" lon="10.670907"/>
<trkpt lat="59.954178" lon="10.671341"/>
<trkpt lat="59.954166" lon="10.671427"/>
<trkpt lat="59.954087" lon="10.671837"/>
<trkpt lat="59.954006" lon="10.672164"/>
<trkpt lat="59.953929" lon="10.672501"/>
<trkpt lat="59.95384" lon="10.672852"/>
<trkpt lat="59.953765" lon="10.673114"/>
<trkpt lat="59.95366" lon="10.673431"/>
<trkpt lat="59.953596" lon="10.673573"/>
<trkpt lat="59.953439" lon="10.673781"/>
<trkpt lat="59.953396" lon="10.673822"/>
<trkpt lat="59.95322" lon="10.673921"/>
<trkpt lat="59.953177" lon="10.67393"/>
<trkpt lat="59.952957" lon="10.673938"/>
<trkpt lat="59.952775" lon="10.673926"/>
<trkpt lat="59.952555" lon="10.673928"/>
<trkpt lat="59.952375" lon="10.673959"/>
<trkpt lat="59.95216" lon="10.674041"/>
<trkpt lat="59.951952" lon="10.674183"/>
<trkpt lat="59.951779" lon="10.674333"/>
<trkpt lat="59.951614" lon="10.674478"/>
<trkpt lat="59.951409" lon="10.674639"/>
<trkpt lat="59.95122" lon="10.674802"/>
<trkpt lat="59.951063" lon="10.674926"/>
<trkpt lat="59.95087" lon="10.675089"/>
<trkpt lat="59.950791" lon="10.675151"/>
<trkpt lat="59.950597" lon="10.675301"/>
<trkpt lat="59.950522" lon="10.675363"/>
<trkpt lat="59.950331" lon="10.675526"/>
<trkpt lat="59.950139" lon="10.675676"/>
</trkseg></trk></gpx>
