<?xml version="1.0" encoding="utf-8"?>
<gpx xmlns="http://www.topografix.com/GPX/1/1" version="1.1" creator="StravaGPX">
<metadata><name>14</name></metadata>
<trk><name>Camilla Colletts vei -&gt; Bislettgata</name><trkseg>
<trkpt lat="59.921594" lon="10.723278"/>
<trkpt lat="59.921728" lon="10.723551"/>
<trkpt lat="59.921873" lon="10.723801"/>
<trkpt lat="59.922038" lon="10.724065"/>
<trkpt lat="59.922191" lon="10.724345"/>
<trkpt lat="59.922314" lon="10.724625"/>
<trkpt lat="59.922449" lon="10.724912"/>
<trkpt lat="59.922571" lon="10.725192"/>
<trkpt lat="59.92271" lon="10.725469"/>
<trkpt lat="59.922849" lon="10.725753"/>
<trkpt lat="59.922972" lon="10.726036"/>
<trkpt lat="59.92313" lon="10.72629"/>
<trkpt lat="59.923267" lon="10.726571"/>
<trkpt lat="59.923394" lon="10.726859"/>
<trkpt lat="59.923527" lon="10.727129"/>
<trkpt lat="59.923654" lon="10.727415"/>
<trkpt lat="59.923798" lon="10.727727"/>
<trkpt lat="59.923928" lon="10.728037"/>
<trkpt lat="59.924052" lon="10.728305"/>
<trkpt lat="59.92417" lon="10.728586"/>
<trkpt lat="59.924285" lon="10.72888"/>
<trkpt lat="59.924402" lon="10.729157"/>
<trkpt lat="59.924527" lon="10.729433"/>
<trkpt lat="59.924649" lon="10.729712"/>
<trkpt lat="59.924783" lon="10.730006"/>
<trkpt lat="59.924935" lon="10.730262"/>
<trkpt lat="59.925088" lon="10.730539"/>
<trkpt lat="59.925233" lon="10.730861"/>
<trkpt lat="59.925301" lon="10.731197"/>
<trkpt lat="59.925169" lon="10.7315"/>
<trkpt lat="59.92501" lon="10.731757"/>
<trkpt lat="59.924834" lon="10.731997"/>
<trkpt lat="59.924678" lon="10.732233"/>
<trkpt lat="59.924525" lon="10.732493"/>
<trkpt lat="59.924421" lon="10.732665"/>
<trkpt lat="59.924347" lon="10.732763"/>
</trkseg></trk></gpx>
