<?xml version="1.0" encoding="utf-8"?>
<gpx xmlns="http://www.topografix.com/GPX/1/1" version="1.1" creator="StravaGPX">
<metadata><name>11</name></metadata>
<trk><name>Frognerparken -&gt; Nordraaks gate</name><trkseg>
<trkpt lat="59.929204" lon="10.695341"/>
<trkpt lat="59.929025" lon="10.695225"/>
<trkpt lat="59.928859" lon="10.695014"/>
<trkpt lat="59.928692" lon="10.694872"/>
<trkpt lat="59.928485" lon="10.694888"/>
<trkpt lat="59.928299" lon="10.694971"/>
<trkpt lat="59.928131" lon="10.695137"/>
<trkpt lat="59.927975" lon="10.695434"/>
<trkpt lat="59.927857" lon="10.695757"/>
<trkpt lat="59.927752" lon="10.696114"/>
<trkpt lat="59.927632" lon="10.696484"/>
<trkpt lat="59.927523" lon="10.696834"/>
<trkpt lat="59.927433" lon="10.697161"/>
<trkpt lat="59.92736" lon="10.69754"/>
<trkpt lat="59.927218" lon="10.697818"/>
<trkpt lat="59.927092" lon="10.698092"/>
<trkpt lat="59.926974" lon="10.698426"/>
<trkpt lat="59.926863" lon="10.698793"/>
<trkpt lat="59.926745" lon="10.699161"/>
<trkpt lat="59.926633" lon="10.699516"/>
<trkpt lat="59.926608" lon="10.699583"/>
<trkpt lat="59.926556" lon="10.699715"/>
<trkpt lat="59.926493" lon="10.699829"/>
<trkpt lat="59.926379" lon="10.69995"/>
<trkpt lat="59.926176" lon="10.700076"/>
<trkpt lat="59.925978" lon="10.700204"/>
<trkpt lat="59.92579" lon="10.700298"/>
<trkpt lat="59.925595" lon="10.700384"/>
<trkpt lat="59.92541" lon="10.700469"/>
<trkpt lat="59.925375" lon="10.700485"/>
<trkpt lat="59.925178" lon="10.700606"/>
<trkpt lat="59.924996" lon="10.700746"/>
<trkpt lat="59.924791" lon="10.700897"/>
<trkpt lat="59.924615" lon="10.701011"/>
<trkpt lat="59.924469" lon="10.701123"/>
<trkpt lat="59.924278" lon="10.701227"/>
<trkpt lat="59.924107" lon="10.701342"/>
<trkpt lat="59.923933" lon="10.701467"/>
<trkpt lat="59.923756" lon="10.701607"/>
<trkpt lat="59.923565" lon="10.701775"/>
<trkpt lat="59.923349" lon="10.701827"/>
<trkpt lat="59.923153" lon="10.701897"/>
<trkpt lat="59.922945" lon="10.701884"/>
<trkpt lat="59.922747" lon="10.701826"/>
<trkpt lat="59.922539" lon="10.701737"/>
<trkpt lat="59.922333" lon="10.701656"/>
<trkpt lat="59.92213" lon="10.701592"/>
<trkpt lat="59.921933" lon="10.701511"/>
<trkpt lat="59.921738" lon="10.701436"/>
<trkpt lat="59.92155" lon="10.701508"/>
<trkpt lat="59.921461" lon="10.701861"/>
<trkpt lat="59.921399" lon="10.702229"/>
<trkpt lat="59.921388" lon="10.702637"/>
<trkpt lat="59.921411" lon="10.703045"/>
<trkpt lat="59.921347" lon="10.703459"/>
<trkpt lat="59.921327" lon="10.703853"/>
<trkpt lat="59.921291" lon="10.704252"/>
<trkpt lat="59.921249" lon="10.704635"/>
<trkpt lat="59.921207" lon="10.705028"/>
<trkpt lat="59.92134" lon="10.705336"/>
<trkpt lat="59.921486" lon="10.705598"/>
<trkpt lat="59.921632" lon="10.705872"/>
<trkpt lat="59.921766" lon="10.706189"/>
<trkpt lat="59.921904" lon="10.706471"/>
<trkpt lat="59.922017" lon="10.706759"/>
<trkpt lat="59.922153" lon="10.707017"/>
<trkpt lat="59.922293" lon="10.707291"/>
<trkpt lat="59.922456" lon="10.707527"/>
</trkseg></trk></gpx>
