<?xml version="1.0" encoding="utf-8"?>
<gpx xmlns="http://www.topografix.com/GPX/1/1" version="1.1" creator="StravaGPX">
<metadata><name>6</name></metadata>
<trk><name>Vinderen -&gt; Slemdal</name><trkseg>
<trkpt lat="59.942834" lon="10.701674"/>
<trkpt lat="59.942872" lon="10.70127"/>
<trkpt lat="59.942933" lon="10.700891"/>
<trkpt lat="59.942996" lon="10.700527"/>
<trkpt lat="59.943065" lon="10.700143"/>
<trkpt lat="59.943075" lon="10.700063"/>
<trkpt lat="59.943145" lon="10.699684"/>
<trkpt lat="59.943201" lon="10.699328"/>
<trkpt lat="59.943252" lon="10.698981"/>
<trkpt lat="59.943326" lon="10.698579"/>
<trkpt lat="59.943382" lon="10.698238"/>
<trkpt lat="59.943463" lon="10.697853"/>
<trkpt lat="59.94354" lon="10.697503"/>
<trkpt lat="59.943608" lon="10.697167"/>
<trkpt lat="59.943675" lon="10.696772"/>
<trkpt lat="59.943731" lon="10.696371"/>
<trkpt lat="59.943795" lon="10.696028"/>
<trkpt lat="59.943901" lon="10.695709"/>
<trkpt lat="59.944047" lon="10.695422"/>
<trkpt lat="59.944199" lon="10.695154"/>
<trkpt lat="59.944339" lon="10.694915"/>
<trkpt lat="59.94452" lon="10.69476"/>
<trkpt lat="59.944703" lon="10.694817"/>
<trkpt lat="59.944906" lon="10.694912"/>
<trkpt lat="59.945095" lon="10.694998"/>
<trkpt lat="59.945278" lon="10.695085"/>
<trkpt lat="59.945454" lon="10.695198"/>
<trkpt lat="59.945629" lon="10.695325"/>
<trkpt lat="59.945825" lon="10.695396"/>
<trkpt lat="59.946023" lon="10.695446"/>
<trkpt lat="59.946207" lon="10.695469"/>
<trkpt lat="59.946393" lon="10.695439"/>
<trkpt lat="59.946584" lon="10.695387"/>
<trkpt lat="59.946771" lon="10.695333"/>
<trkpt lat="59.94696" lon="10.695246"/>
<trkpt lat="59.947151" lon="10.695164"/>
<trkpt lat="59.947343" lon="10.69505"/>
<trkpt lat="59.947523" lon="10.694929"/>
<trkpt lat="59.94771" lon="10.694744"/>
<trkpt lat="59.94788" lon="10.694511"/>
<trkpt lat="59.948021" lon="10.694192"/>
<trkpt lat="59.948118" lon="10.69383"/>
<trkpt lat="59.948195" lon="10.693466"/>
<trkpt lat="59.948306" lon="10.693144"/>
<trkpt lat="59.948454" lon="10.692939"/>
<trkpt lat="59.948647" lon="10.692839"/>
<trkpt lat="59.948833" lon="10.692794"/>
<trkpt lat="59.949015" lon="10.692728"/>
<trkpt lat="59.949194" lon="10.692619"/>
<trkpt lat="59.94939" lon="10.692447"/>
<trkpt lat="59.949581" lon="10.692275"/>
<trkpt lat="59.949731" lon="10.692133"/>
<trkpt lat="59.949896" lon="10.691975"/>
<trkpt lat="59.950084" lon="10.691889"/>
<trkpt lat="59.950273" lon="10.691913"/>
<trkpt lat="59.950448" lon="10.692044"/>
<trkpt lat="59.950638" lon="10.692198"/>
<trkpt lat="59.950844" lon="10.692299"/>
<trkpt lat="59.951039" lon="10.692224"/>
<trkpt lat="59.951223" lon="10.692062"/>
<trkpt lat="59.951411" lon="10.69193"/>
</trkseg></trk></gpx>
