<?xml version="1.0" encoding="utf-8"?>
<gpx xmlns="http://www.topografix.com/GPX/1/1" version="1.1" creator="StravaGPX">
<metadata><name>1</name></metadata>
<trk><name>Knud Knudsens plass -&gt; Louises gate</name><trkseg>
<trkpt lat="59.924621" lon="10.740486"><ele>60.2</ele></trkpt>
<trkpt lat="59.924637" lon="10.74061"><ele>60.1</ele></trkpt>
<trkpt lat="59.92466" lon="10.740658"><ele>60.3</ele></trkpt>
<trkpt lat="59.924692" lon="10.740714"><ele>60.4</ele></trkpt>
<trkpt lat="59.924734" lon="10.740778"><ele>60.6</ele></trkpt>
<trkpt lat="59.924784" lon="10.74084"><ele>60.8</ele></trkpt>
<trkpt lat="59.924841" lon="10.740906"><ele>61</ele></trkpt>
<trkpt lat="59.924898" lon="10.740974"><ele>61.2</ele></trkpt>
<trkpt lat="59.924955" lon="10.741046"><ele>61.4</ele></trkpt>
<trkpt lat="59.925012" lon="10.741119"><ele>61.6</ele></trkpt>
<trkpt lat="59.925074" lon="10.741189"><ele>62</ele></trkpt>
<trkpt lat="59.925134" lon="10.741252"><ele>62.4</ele></trkpt>
<trkpt lat="59.925193" lon="10.741313"><ele>62.7</ele></trkpt>
<trkpt lat="59.925244" lon="10.741379"><ele>63</ele></trkpt>
<trkpt lat="59.925294" lon="10.741447"><ele>63.3</ele></trkpt>
<trkpt lat="59.925344" lon="10.741512"><ele>63.6</ele></trkpt>
<trkpt lat="59.925395" lon="10.741572"><ele>63.8</ele></trkpt>
<trkpt lat="59.925445" lon="10.741626"><ele>64</ele></trkpt>
<trkpt lat="59.925496" lon="10.741682"><ele>64.2</ele></trkpt>
<trkpt lat="59.925545" lon="10.741735"><ele>64.4</ele></trkpt>
<trkpt lat="59.925597" lon="10.741795"><ele>64.6</ele></trkpt>
<trkpt lat="59.925646" lon="10.741858"><ele>64.9</ele></trkpt>
<trkpt lat="59.925698" lon="10.741923"><ele>65.2</ele></trkpt>
<trkpt lat="59.925744" lon="10.741988"><ele>65.4</ele></trkpt>
<trkpt lat="59.925789" lon="10.742051"><ele>65.6</ele></trkpt>
<trkpt lat="59.925834" lon="10.742113"><ele>65.8</ele></trkpt>
<trkpt lat="59.92588" lon="10.742167"><ele>66</ele></trkpt>
<trkpt lat="59.925928" lon="10.74222"><ele>66.3</ele></trkpt>
<trkpt lat="59.925974" lon="10.742271"><ele>66.6</ele></trkpt>
<trkpt lat="59.926021" lon="10.742318"><ele>67.1</ele></trkpt>
<trkpt lat="59.926067" lon="10.742359"><ele>67.4</ele></trkpt>
<trkpt lat="59.926111" lon="10.742397"><ele>67.6</ele></trkpt>
<trkpt lat="59.926152" lon="10.742434"><ele>67.9</ele></trkpt>
<trkpt lat="59.926194" lon="10.742471"><ele>68.3</ele></trkpt>
<trkpt lat="59.926237" lon="10.742509"><ele>68.8</ele></trkpt>
<trkpt lat="59.926279" lon="10.742544"><ele>69.2</ele></trkpt>
<trkpt lat="59.926318" lon="10.742575"><ele>69.6</ele></trkpt>
<trkpt lat="59.926354" lon="10.742602"><ele>70</ele></trkpt>
<trkpt lat="59.92639" lon="10.742631"><ele>70.3</ele></trkpt>
<trkpt lat="59.926435" lon="10.742667"><ele>70.7</ele></trkpt>
<trkpt lat="59.926487" lon="10.742704"><ele>71.1</ele></trkpt>
<trkpt lat="59.926542" lon="10.742745"><ele>71.7</ele></trkpt>
<trkpt lat="59.926591" lon="10.742788"><ele>72.3</ele></trkpt>
<trkpt lat="59.926637" lon="10.742834"><ele>72.9</ele></trkpt>
<trkpt lat="59.926681" lon="10.742876"><ele>73.4</ele></trkpt>
<trkpt lat="59.926723" lon="10.742912"><ele>73.9</ele></trkpt>
<trkpt lat="59.926766" lon="10.742951"><ele>74.5</ele></trkpt>
<trkpt lat="59.926808" lon="10.742992"><ele>75</ele></trkpt>
<trkpt lat="59.926853" lon="10.743033"><ele>75.6</ele></trkpt>
<trkpt lat="59.926899" lon="10.743069"><ele>76</ele></trkpt>
<trkpt lat="59.926946" lon="10.743103"><ele>76</ele></trkpt>
<trkpt lat="59.926993" lon="10.74314"><ele>75.9</ele></trkpt>
<trkpt lat="59.927038" lon="10.74318"><ele>75.8</ele></trkpt>
<trkpt lat="59.927082" lon="10.74322"><ele>75.7</ele></trkpt>
<trkpt lat="59.927125" lon="10.743257"><ele>75.6</ele></trkpt>
<trkpt lat="59.927168" lon="10.743293"><ele>75.6</ele></trkpt>
<trkpt lat="59.927211" lon="10.743325"><ele>75.6</ele></trkpt>
<trkpt lat="59.927257" lon="10.743353"><ele>75.6</ele></trkpt>
<trkpt lat="59.927304" lon="10.743377"><ele>75.7</ele></trkpt>
<trkpt lat="59.927348" lon="10.743402"><ele>75.7</ele></trkpt>
<trkpt lat="59.927389" lon="10.743432"><ele>75.7</ele></trkpt>
<trkpt lat="59.927426" lon="10.743463"><ele>75.8</ele></trkpt>
<trkpt lat="59.927465" lon="10.743495"><ele>75.9</ele></trkpt>
<trkpt lat="59.927504" lon="10.743524"><ele>76</ele></trkpt>
<trkpt lat="59.927548" lon="10.743552"><ele>76.1</ele></trkpt>
<trkpt lat="59.927587" lon="10.743579"><ele>76.2</ele></trkpt>
<trkpt lat="59.927622" lon="10.743608"><ele>76.3</ele></trkpt>
<trkpt lat="59.927657" lon="10.743638"><ele>76.4</ele></trkpt>
<trkpt lat="59.927693" lon="10.743666"><ele>76.6</ele></trkpt>
<trkpt lat="59.927733" lon="10.743693"><ele>76.7</ele></trkpt>
<trkpt lat="59.927772" lon="10.743716"><ele>76.8</ele></trkpt>
<trkpt lat="59.927813" lon="10.743737"><ele>77</ele></trkpt>
<trkpt lat="59.927855" lon="10.74376"><ele>77.1</ele></trkpt>
<trkpt lat="59.927894" lon="10.743786"><ele>77.2</ele></trkpt>
<trkpt lat="59.927934" lon="10.743817"><ele>77.4</ele></trkpt>
<trkpt lat="59.927974" lon="10.743846"><ele>77.5</ele></trkpt>
<trkpt lat="59.928015" lon="10.743881"><ele>77.6</ele></trkpt>
<trkpt lat="59.928056" lon="10.743911"><ele>77.7</ele></trkpt>
<trkpt lat="59.928096" lon="10.743937"><ele>77.8</ele></trkpt>
<trkpt lat="59.928138" lon="10.743958"><ele>77.8</ele></trkpt>
<trkpt lat="59.928176" lon="10.743978"><ele>77.8</ele></trkpt>
<trkpt lat="59.928214" lon="10.744004"><ele>77.8</ele></trkpt>
<trkpt lat="59.92825" lon="10.744028"><ele>77.8</ele></trkpt>
<trkpt lat="59.928285" lon="10.744051"><ele>77.7</ele></trkpt>
<trkpt lat="59.928317" lon="10.744063"><ele>77.6</ele></trkpt>
<trkpt lat="59.928349" lon="10.744077"><ele>77.5</ele></trkpt>
<trkpt lat="59.928382" lon="10.744093"><ele>77.5</ele></trkpt>
<trkpt lat="59.928418" lon="10.744107"><ele>77.3</ele></trkpt>
<trkpt lat="59.92846" lon="10.744118"><ele>77.1</ele></trkpt>
<trkpt lat="59.928503" lon="10.744122"><ele>77</ele></trkpt>
<trkpt lat="59.928547" lon="10.744122"><ele>76.8</ele></trkpt>
<trkpt lat="59.928586" lon="10.744123"><ele>76.7</ele></trkpt>
<trkpt lat="59.928627" lon="10.744129"><ele>76.6</ele></trkpt>
<trkpt lat="59.928671" lon="10.744143"><ele>76.4</ele></trkpt>
<trkpt lat="59.928719" lon="10.744162"><ele>76.3</ele></trkpt>
<trkpt lat="59.928767" lon="10.74418"><ele>76.2</ele></trkpt>
<trkpt lat="59.928821" lon="10.744203"><ele>76.2</ele></trkpt>
<trkpt lat="59.928873" lon="10.74422"><ele>76.1</ele></trkpt>
<trkpt lat="59.928929" lon="10.744234"><ele>76</ele></trkpt>
<trkpt lat="59.928984" lon="10.744244"><ele>75.8</ele></trkpt>
<trkpt lat="59.92904" lon="10.744256"><ele>75.6</ele></trkpt>
<trkpt lat="59.929093" lon="10.744264"><ele>75.4</ele></trkpt>
<trkpt lat="59.929145" lon="10.744261"><ele>75.1</ele></trkpt>
<trkpt lat="59.929199" lon="10.744245"><ele>74.8</ele></trkpt>
<trkpt lat="59.929253" lon="10.744217"><ele>74.6</ele></trkpt>
<trkpt lat="59.929307" lon="10.744183"><ele>74.3</ele></trkpt>
<trkpt lat="59.929363" lon="10.744143"><ele>74.1</ele></trkpt>
<trkpt lat="59.929419" lon="10.744095"><ele>73.8</ele></trkpt>
<trkpt lat="59.92947" lon="10.744046"><ele>73.5</ele></trkpt>
<trkpt lat="59.929515" lon="10.743995"><ele>73.5</ele></trkpt>
<trkpt lat="59.929555" lon="10.743946"><ele>73.4</ele></trkpt>
<trkpt lat="59.929599" lon="10.743897"><ele>73.4</ele></trkpt>
<trkpt lat="59.929643" lon="10.743847"><ele>73.3</ele></trkpt>
<trkpt lat="59.929685" lon="10.743796"><ele>73.4</ele></trkpt>
<trkpt lat="59.929724" lon="10.743742"><ele>73.5</ele></trkpt>
<trkpt lat="59.92976" lon="10.743686"><ele>73.6</ele></trkpt>
<trkpt lat="59.929788" lon="10.743616"><ele>74</ele></trkpt>
<trkpt lat="59.929809" lon="10.74354"><ele>74</ele></trkpt>
<trkpt lat="59.929821" lon="10.743457"><ele>74</ele></trkpt>
<trkpt lat="59.929825" lon="10.743382"><ele>74.1</ele></trkpt>
<trkpt lat="59.929816" lon="10.743309"><ele>74.2</ele></trkpt>
<trkpt lat="59.929795" lon="10.743245"><ele>74.3</ele></trkpt>
<trkpt lat="59.929767" lon="10.743181"><ele>74.4</ele></trkpt>
<trkpt lat="59.929736" lon="10.743122"><ele>74.4</ele></trkpt>
<trkpt lat="59.929703" lon="10.743056"><ele>74.5</ele></trkpt>
<trkpt lat="59.929663" lon="10.742993"><ele>74.6</ele></trkpt>
<trkpt lat="59.929622" lon="10.742925"><ele>74.6</ele></trkpt>
<trkpt lat="59.92958" lon="10.742858"><ele>74.7</ele></trkpt>
<trkpt lat="59.929536" lon="10.742788"><ele>74.8</ele></trkpt>
<trkpt lat="59.929489" lon="10.742719"><ele>74.9</ele></trkpt>
<trkpt lat="59.929443" lon="10.742655"><ele>74.9</ele></trkpt>
<trkpt lat="59.929396" lon="10.742592"><ele>74.9</ele></trkpt>
<trkpt lat="59.929353" lon="10.742529"><ele>74.9</ele></trkpt>
<trkpt lat="59.929309" lon="10.742462"><ele>74.9</ele></trkpt>
<trkpt lat="59.929266" lon="10.742396"><ele>74.9</ele></trkpt>
<trkpt lat="59.929222" lon="10.742328"><ele>74.9</ele></trkpt>
<trkpt lat="59.92918" lon="10.742256"><ele>74.9</ele></trkpt>
<trkpt lat="59.929138" lon="10.74219"><ele>74.9</ele></trkpt>
<trkpt lat="59.929098" lon="10.742122"><ele>74.9</ele></trkpt>
<trkpt lat="59.929058" lon="10.742055"><ele>74.9</ele></trkpt>
<trkpt lat="59.929018" lon="10.741979"><ele>75</ele></trkpt>
<trkpt lat="59.928977" lon="10.741906"><ele>75</ele></trkpt>
<trkpt lat="59.928936" lon="10.74183"><ele>74.9</ele></trkpt>
<trkpt lat="59.928893" lon="10.741754"><ele>74.9</ele></trkpt>
<trkpt lat="59.928852" lon="10.74168"><ele>74.9</ele></trkpt>
<trkpt lat="59.92881" lon="10.741608"><ele>74.9</ele></trkpt>
<trkpt lat="59.928767" lon="10.74154"><ele>74.9</ele></trkpt>
<trkpt lat="59.928724" lon="10.741463"><ele>74.9</ele></trkpt>
<trkpt lat="59.928683" lon="10.741384"><ele>74.9</ele></trkpt>
<trkpt lat="59.928644" lon="10.741305"><ele>74.9</ele></trkpt>
<trkpt lat="59.928603" lon="10.741228"><ele>74.9</ele></trkpt>
<trkpt lat="59.928565" lon="10.74115"><ele>75</ele></trkpt>
<trkpt lat="59.928525" lon="10.741068"><ele>75</ele></trkpt>
<trkpt lat="59.928485" lon="10.740991"><ele>74.9</ele></trkpt>
<trkpt lat="59.928443" lon="10.740919"><ele>74.8</ele></trkpt>
<trkpt lat="59.928401" lon="10.740847"><ele>74.7</ele></trkpt>
<trkpt lat="59.928361" lon="10.740773"><ele>74.5</ele></trkpt>
<trkpt lat="59.928319" lon="10.7407"><ele>74.4</ele></trkpt>
<trkpt lat="59.928278" lon="10.740629"><ele>74.3</ele></trkpt>
<trkpt lat="59.928239" lon="10.740558"><ele>74.1</ele></trkpt>
<trkpt lat="59.928199" lon="10.740486"><ele>73.9</ele></trkpt>
<trkpt lat="59.928159" lon="10.740415"><ele>73.6</ele></trkpt>
<trkpt lat="59.928116" lon="10.740346"><ele>73.3</ele></trkpt>
<trkpt lat="59.928073" lon="10.740281"><ele>72.9</ele></trkpt>
<trkpt lat="59.92803" lon="10.740213"><ele>72.5</ele></trkpt>
<trkpt lat="59.927987" lon="10.740142"><ele>72.1</ele></trkpt>
<trkpt lat="59.927945" lon="10.740067"><ele>71.8</ele></trkpt>
<trkpt lat="59.927902" lon="10.739995"><ele>71.6</ele></trkpt>
<trkpt lat="59.927862" lon="10.739925"><ele>71.5</ele></trkpt>
<trkpt lat="59.927821" lon="10.739853"><ele>71.3</ele></trkpt>
<trkpt lat="59.927784" lon="10.739782"><ele>71.1</ele></trkpt>
<trkpt lat="59.927747" lon="10.739712"><ele>71</ele></trkpt>
<trkpt lat="59.927709" lon="10.739647"><ele>70.7</ele></trkpt>
<trkpt lat="59.927667" lon="10.739581"><ele>70.3</ele></trkpt>
<trkpt lat="59.927624" lon="10.73951"><ele>70</ele></trkpt>
<trkpt lat="59.927584" lon="10.739437"><ele>69.6</ele></trkpt>
<trkpt lat="59.927546" lon="10.739359"><ele>69.1</ele></trkpt>
<trkpt lat="59.92751" lon="10.739283"><ele>69</ele></trkpt>
<trkpt lat="59.927475" lon="10.739203"><ele>65.7</ele></trkpt>
<trkpt lat="59.92744" lon="10.739119"><ele>63.4</ele></trkpt>
<trkpt lat="59.927407" lon="10.739035"><ele>63</ele></trkpt>
<trkpt lat="59.927374" lon="10.73895"><ele>63</ele></trkpt>
<trkpt lat="59.927342" lon="10.738861"><ele>63</ele></trkpt>
<trkpt lat="59.927312" lon="10.738765"><ele>62.9</ele></trkpt>
<trkpt lat="59.927281" lon="10.738667"><ele>62.7</ele></trkpt>
<trkpt lat="59.927252" lon="10.738569"><ele>62.6</ele></trkpt>
<trkpt lat="59.927224" lon="10.738474"><ele>62.4</ele></trkpt>
<trkpt lat="59.927192" lon="10.738386"><ele>62.3</ele></trkpt>
<trkpt lat="59.927159" lon="10.738302"><ele>62.1</ele></trkpt>
<trkpt lat="59.927127" lon="10.738216"><ele>62</ele></trkpt>
<trkpt lat="59.927099" lon="10.738121"><ele>61.9</ele></trkpt>
<trkpt lat="59.927072" lon="10.738025"><ele>61.9</ele></trkpt>
</trkseg></trk></gpx>
