<?xml version="1.0" encoding="utf-8"?>
<gpx xmlns="http://www.topografix.com/GPX/1/1" version="1.1" creator="StravaGPX">
<metadata><name>3</name></metadata>
<trk><name>Wolffs gate -&gt; Wilh. Faerdens vei</name><trkseg>
<trkpt lat="59.931209" lon="10.730306"/>
<trkpt lat="59.931392" lon="10.730352"/>
<trkpt lat="59.931594" lon="10.730425"/>
<trkpt lat="59.931801" lon="10.730496"/>
<trkpt lat="59.931991" lon="10.730561"/>
<trkpt lat="59.932173" lon="10.730626"/>
<trkpt lat="59.932351" lon="10.730692"/>
<trkpt lat="59.932531" lon="10.730766"/>
<trkpt lat="59.932708" lon="10.730847"/>
<trkpt lat="59.932883" lon="10.730931"/>
<trkpt lat="59.933099" lon="10.731046"/>
<trkpt lat="59.933152" lon="10.731071"/>
<trkpt lat="59.933259" lon="10.731116"/>
<trkpt lat="59.933486" lon="10.7312"/>
<trkpt lat="59.933543" lon="10.731224"/>
<trkpt lat="59.933771" lon="10.731313"/>
<trkpt lat="59.933922" lon="10.731319"/>
<trkpt lat="59.934002" lon="10.731225"/>
<trkpt lat="59.934155" lon="10.730903"/>
<trkpt lat="59.934235" lon="10.730732"/>
<trkpt lat="59.934372" lon="10.7304"/>
<trkpt lat="59.934401" lon="10.730255"/>
<trkpt lat="59.934558" lon="10.729904"/>
<trkpt lat="59.934718" lon="10.729544"/>
<trkpt lat="59.934748" lon="10.729423"/>
<trkpt lat="59.934809" lon="10.729059"/>
<trkpt lat="59.93483" lon="10.728937"/>
<trkpt lat="59.93489" lon="10.728575"/>
<trkpt lat="59.934936" lon="10.728224"/>
<trkpt lat="59.934986" lon="10.727883"/>
<trkpt lat="59.935074" lon="10.727476"/>
<trkpt lat="59.935122" lon="10.727255"/>
<trkpt lat="59.935152" lon="10.727172"/>
<trkpt lat="59.935176" lon="10.72714"/>
<trkpt lat="59.935194" lon="10.727046"/>
<trkpt lat="59.935196" lon="10.727076"/>
</trkseg></trk></gpx>
